{
  "type": "FeatureCollection",
  "crs": {
    "type": "name",
    "properties": {
      "name": "urn:ogc:def:crs:OGC:1.3:CRS84"
    }
  },
  "features": [
    {
      "type": "Feature",
      "geometry": {
        "type": "Point",
        "coordinates": [
          95.8328,
          28.7891
        ]
      },
      "properties": {
        "zone_id": "DV-007",
        "location_name": "Dri River Slope - Anini Highway Section",
        "prediction_status": "CURRENT_INCIDENT",
        "risk_score": 0.82,
        "risk_level": "CRITICAL",
        "distance_km": 0.0,
        "landslide_flag": true
      }
    },
    {
      "type": "Feature",
      "geometry": {
        "type": "Point",
        "coordinates": [
          95.825,
          28.798
        ]
      },
      "properties": {
        "zone_id": "DV-011",
        "location_name": "Dri River Bridge Support Slope",
        "prediction_status": "NEXT_EMERGENT_RISK",
        "current_risk": 0.8,
        "predicted_risk": 0.88,
        "risk_change": 0.08,
        "current_level": "CRITICAL",
        "predicted_level": "CRITICAL",
        "prediction_horizon": "3\u20136 hours",
        "distance_km": 1.25,
        "dominant_factors": [
          "increasing rainfall intensity",
          "high soil saturation & water content",
          "rising pore-water pressure",
          "accelerating ground displacement",
          "steep slope geometry susceptibility"
        ]
      }
    },
    {
      "type": "Feature",
      "geometry": {
        "type": "Point",
        "coordinates": [
          95.815,
          28.762
        ]
      },
      "properties": {
        "zone_id": "DV-014",
        "location_name": "Mathunli East Slope Ridge",
        "prediction_status": "CRITICAL",
        "current_risk": 0.78,
        "predicted_risk": 0.84,
        "risk_change": 0.06,
        "current_level": "CRITICAL",
        "predicted_level": "CRITICAL",
        "prediction_horizon": "3\u20136 hours",
        "distance_km": 3.48,
        "dominant_factors": [
          "increasing rainfall intensity",
          "high soil saturation & water content",
          "rising pore-water pressure",
          "accelerating ground displacement",
          "steep slope geometry susceptibility"
        ]
      }
    },
    {
      "type": "Feature",
      "geometry": {
        "type": "Point",
        "coordinates": [
          95.84,
          28.775
        ]
      },
      "properties": {
        "zone_id": "DV-008",
        "location_name": "Anini South Bypass Slope",
        "prediction_status": "CRITICAL",
        "current_risk": 0.72,
        "predicted_risk": 0.81,
        "risk_change": 0.09,
        "current_level": "HIGH",
        "predicted_level": "CRITICAL",
        "prediction_horizon": "3\u20136 hours",
        "distance_km": 1.72,
        "dominant_factors": [
          "increasing rainfall intensity",
          "high soil saturation & water content",
          "rising pore-water pressure",
          "accelerating ground displacement",
          "steep slope geometry susceptibility"
        ]
      }
    },
    {
      "type": "Feature",
      "geometry": {
        "type": "Point",
        "coordinates": [
          95.86,
          28.825
        ]
      },
      "properties": {
        "zone_id": "DV-006",
        "location_name": "Dri River Upper Catchment",
        "prediction_status": "CRITICAL",
        "current_risk": 0.66,
        "predicted_risk": 0.76,
        "risk_change": 0.1,
        "current_level": "HIGH",
        "predicted_level": "CRITICAL",
        "prediction_horizon": "3\u20136 hours",
        "distance_km": 4.79,
        "dominant_factors": [
          "increasing rainfall intensity",
          "rising pore-water pressure",
          "accelerating ground displacement",
          "steep slope geometry susceptibility",
          "historical slope instability scar"
        ]
      }
    },
    {
      "type": "Feature",
      "geometry": {
        "type": "Point",
        "coordinates": [
          95.82,
          28.751
        ]
      },
      "properties": {
        "zone_id": "DV-004",
        "location_name": "Mathunli Village Slope",
        "prediction_status": "CRITICAL",
        "current_risk": 0.65,
        "predicted_risk": 0.75,
        "risk_change": 0.1,
        "current_level": "HIGH",
        "predicted_level": "CRITICAL",
        "prediction_horizon": "3\u20136 hours",
        "distance_km": 4.42,
        "dominant_factors": [
          "increasing rainfall intensity",
          "high soil saturation & water content",
          "rising pore-water pressure",
          "accelerating ground displacement"
        ]
      }
    },
    {
      "type": "Feature",
      "geometry": {
        "type": "Point",
        "coordinates": [
          95.845,
          28.81
        ]
      },
      "properties": {
        "zone_id": "DV-001",
        "location_name": "Anini High Pass Slope",
        "prediction_status": "EMERGING",
        "current_risk": 0.59,
        "predicted_risk": 0.7,
        "risk_change": 0.11,
        "current_level": "HIGH",
        "predicted_level": "HIGH",
        "prediction_horizon": "3\u20136 hours",
        "distance_km": 2.61,
        "dominant_factors": [
          "increasing rainfall intensity",
          "accelerating ground displacement",
          "steep slope geometry susceptibility",
          "historical slope instability scar"
        ]
      }
    },
    {
      "type": "Feature",
      "geometry": {
        "type": "Point",
        "coordinates": [
          95.805,
          28.755
        ]
      },
      "properties": {
        "zone_id": "DV-010",
        "location_name": "Mathunli West Slope",
        "prediction_status": "EMERGING",
        "current_risk": 0.55,
        "predicted_risk": 0.66,
        "risk_change": 0.11,
        "current_level": "HIGH",
        "predicted_level": "HIGH",
        "prediction_horizon": "3\u20136 hours",
        "distance_km": 4.66,
        "dominant_factors": [
          "increasing rainfall intensity",
          "accelerating ground displacement"
        ]
      }
    },
    {
      "type": "Feature",
      "geometry": {
        "type": "Point",
        "coordinates": [
          95.85,
          28.74
        ]
      },
      "properties": {
        "zone_id": "DV-002",
        "location_name": "Etalin North Ridge",
        "prediction_status": "EMERGING",
        "current_risk": 0.51,
        "predicted_risk": 0.63,
        "risk_change": 0.12,
        "current_level": "HIGH",
        "predicted_level": "HIGH",
        "prediction_horizon": "3\u20136 hours",
        "distance_km": 5.71,
        "dominant_factors": [
          "increasing rainfall intensity",
          "accelerating ground displacement"
        ]
      }
    },
    {
      "type": "Feature",
      "geometry": {
        "type": "Point",
        "coordinates": [
          95.83,
          28.73
        ]
      },
      "properties": {
        "zone_id": "DV-009",
        "location_name": "Etalin West Escarpment",
        "prediction_status": "EMERGING",
        "current_risk": 0.48,
        "predicted_risk": 0.6,
        "risk_change": 0.12,
        "current_level": "MODERATE",
        "predicted_level": "HIGH",
        "prediction_horizon": "3\u20136 hours",
        "distance_km": 6.58,
        "dominant_factors": [
          "increasing rainfall intensity",
          "accelerating ground displacement"
        ]
      }
    },
    {
      "type": "Feature",
      "geometry": {
        "type": "Point",
        "coordinates": [
          95.815,
          28.705
        ]
      },
      "properties": {
        "zone_id": "DV-015",
        "location_name": "Dambuk Highway Pass Slope",
        "prediction_status": "EMERGING",
        "current_risk": 0.45,
        "predicted_risk": 0.56,
        "risk_change": 0.11,
        "current_level": "MODERATE",
        "predicted_level": "HIGH",
        "prediction_horizon": "3\u20136 hours",
        "distance_km": 9.51,
        "dominant_factors": [
          "increasing rainfall intensity",
          "accelerating ground displacement"
        ]
      }
    },
    {
      "type": "Feature",
      "geometry": {
        "type": "Point",
        "coordinates": [
          95.79,
          28.71
        ]
      },
      "properties": {
        "zone_id": "DV-003",
        "location_name": "Dambuk Valley Riverbank",
        "prediction_status": "EMERGING",
        "current_risk": 0.41,
        "predicted_risk": 0.53,
        "risk_change": 0.12,
        "current_level": "MODERATE",
        "predicted_level": "HIGH",
        "prediction_horizon": "3\u20136 hours",
        "distance_km": 9.74,
        "dominant_factors": [
          "increasing rainfall intensity",
          "accelerating ground displacement"
        ]
      }
    },
    {
      "type": "Feature",
      "geometry": {
        "type": "Point",
        "coordinates": [
          95.81,
          28.82
        ]
      },
      "properties": {
        "zone_id": "DV-012",
        "location_name": "Anini Reservoir Flank",
        "prediction_status": "MODERATE",
        "current_risk": 0.37,
        "predicted_risk": 0.49,
        "risk_change": 0.12,
        "current_level": "MODERATE",
        "predicted_level": "MODERATE",
        "prediction_horizon": "3\u20136 hours",
        "distance_km": 4.09,
        "dominant_factors": [
          "increasing rainfall intensity",
          "accelerating ground displacement"
        ]
      }
    },
    {
      "type": "Feature",
      "geometry": {
        "type": "Point",
        "coordinates": [
          95.86,
          28.725
        ]
      },
      "properties": {
        "zone_id": "DV-013",
        "location_name": "Etalin Powerstation Approach",
        "prediction_status": "MODERATE",
        "current_risk": 0.22,
        "predicted_risk": 0.35,
        "risk_change": 0.13,
        "current_level": "LOW",
        "predicted_level": "MODERATE",
        "prediction_horizon": "3\u20136 hours",
        "distance_km": 7.6,
        "dominant_factors": [
          "increasing rainfall intensity",
          "accelerating ground displacement"
        ]
      }
    }
  ]
}